     3.02           NAVIGATION DATA     M (Mixed)           RINEX VERSION / TYPE
BCEmerge            congo               20130531 034602 GMT PGM / RUN BY / DATE 
Merged GPS/GLO/GAL/BDS/QZS/SBAS navigation file             COMMENT 
based on CONGO and MGEX tracking data                       COMMENT 
DLR: O. Montenbruck;  TUM: P. Steigenberger                 COMMENT 
GAUT  3.7252902985e-09-1.776356839e-15 169200 1742 1742   0 TIME SYSTEM CORR    
GLGP -3.9022415876e-07 0.000000000e+00 345600 1742 1742   0 TIME SYSTEM CORR    
GLUT -2.0582228899e-07 0.000000000e+00 345600 1742 1742   0 TIME SYSTEM CORR    
GPGA -2.9394868761e-09 1.332267630e-15 345600 1742 1742   0 TIME SYSTEM CORR    
GPUT -3.7252902985e-09-1.065814104e-14 503808 1742 1742   0 TIME SYSTEM CORR    
QZUT -9.8953023553e-09 6.217248938e-15 576000 1742 1742   0 TIME SYSTEM CORR    
GPSA   1.0245e-08  2.2352e-08 -5.9605e-08 -1.1921e-07       IONOSPHERIC CORR
GPSB   9.6256e+04  1.3107e+05 -6.5536e+04 -5.8982e+05       IONOSPHERIC CORR
    16                                                      LEAP SECONDS        
                                                            END OF HEADER       
G16 2013 05 31 00 00 00-2.517472021282e-04 3.410605131648e-13 0.000000000000e+00
     4.800000000000e+01 2.031250000000e+00 4.313036798152e-09-2.352432673886e+00
    -3.725290298462e-08 7.158288848586e-03 5.207955837250e-06 5.153645996094e+03
     4.320000000000e+05-1.359730958939e-07 2.772097611895e+00-1.788139343262e-07
     9.850222005970e-01 2.955000000000e+02 1.033979160811e-01-8.081050893921e-09
     2.685826161155e-10 0.000000000000e+00 1.742000000000e+03 0.000000000000e+00
     2.000000000000e+00 0.000000000000e+00-1.024454832077e-08 4.800000000000e+01
     4.248000000000e+05                                                         
G17 2013 05 30 01 59 28 1.435494050384e-05-4.092726157978e-12 0.000000000000e+00
     1.900000000000e+01-9.309375000000e+01 4.460185784641e-09-2.355209043705e+00
    -4.755333065987e-06 8.345583104528e-03 8.726492524147e-06 5.153637462616e+03
     3.527680000000e+05 1.378357410431e-07-2.474171081282e+00-6.705522537231e-08
     9.655866770637e-01 2.118750000000e+02-2.191739757021e+00-7.910329496975e-09
     2.071514858337e-11 0.000000000000e+00 1.742000000000e+03 0.000000000000e+00
     2.000000000000e+00 0.000000000000e+00-1.024454832077e-08 1.900000000000e+01
     3.456000000000e+05                                                         
G17 2013 05 29 22 00 00 1.441594213247e-05-3.979039320257e-12 0.000000000000e+00
     1.020000000000e+02-8.643750000000e+01 4.363038880939e-09 1.832392391412e+00
    -4.624947905540e-06 8.345062844455e-03 9.797513484955e-06 5.153637554169e+03
     3.384000000000e+05-2.011656761169e-07-2.474057074614e+00-1.043081283569e-07
     9.655878430094e-01 1.963125000000e+02-2.191891277298e+00-7.938544957976e-09
    -1.467918287546e-10 0.000000000000e+00 1.742000000000e+03 0.000000000000e+00
     2.000000000000e+00 0.000000000000e+00-1.024454832077e-08 1.020000000000e+02
     3.518110000000e+05                                                         
G17 2013 05 30 04 00 00 1.432560384274e-05-4.092726157978e-12 0.000000000000e+00
     2.000000000000e+01-9.709375000000e+01 4.485186826034e-09-1.300273796457e+00
    -4.874542355537e-06 8.345379494131e-03 8.819624781609e-06 5.153638544083e+03
     3.600000000000e+05 2.048909664154e-07-2.474228029757e+00 9.872019290924e-08
     9.655863347409e-01 2.102500000000e+02-2.191805461061e+00-8.018191132702e-09
    -4.464471677451e-11 0.000000000000e+00 1.742000000000e+03 0.000000000000e+00
     2.000000000000e+00 0.000000000000e+00-1.024454832077e-08 2.000000000000e+01
     3.528000000000e+05                                                         
G17 2013 05 30 06 00 00 1.429626718163e-05-4.092726157978e-12 0.000000000000e+00
     5.600000000000e+01-9.590625000000e+01 4.519116810783e-09-2.501328579861e-01
    -4.934147000313e-06 8.345108944923e-03 9.337440133095e-06 5.153637493134e+03
     3.672000000000e+05 1.117587089539e-08-2.474286537703e+00 1.247972249985e-07
     9.655852536444e-01 2.056250000000e+02-2.191743455278e+00-8.183555163635e-09
    -4.857345185067e-11 0.000000000000e+00 1.742000000000e+03 0.000000000000e+00
     2.000000000000e+00 0.000000000000e+00-1.024454832077e-08 5.600000000000e+01
     3.600000000000e+05                                                         
G17 2013 05 30 08 00 00 1.426693052053e-05-4.092726157978e-12 0.000000000000e+00
     6.900000000000e+01-9.006250000000e+01 4.403397704904e-09 8.000800341106e-01
    -4.835426807404e-06 8.345774491318e-03 9.149312973022e-06 5.153638668060e+03
     3.744000000000e+05-8.754432201385e-08-2.474344861321e+00 8.009374141693e-08
     9.655847006614e-01 2.047812500000e+02-2.191754700729e+00-8.144624970607e-09
    -1.285767843106e-10 0.000000000000e+00 1.742000000000e+03 0.000000000000e+00
     2.000000000000e+00 0.000000000000e+00-1.024454832077e-08 6.900000000000e+01
     3.672000000000e+05                                                         
G17 2013 05 30 10 00 00 1.423759385943e-05-4.092726157978e-12 0.000000000000e+00
     7.000000000000e+01-8.318750000000e+01 4.292678807303e-09 1.850396367682e+00
    -4.278495907784e-06 8.345311856829e-03 8.851289749146e-06 5.153636707306e+03
     3.816000000000e+05-2.048909664154e-07-2.474403875436e+00-1.136213541031e-07
     9.655846523851e-01 2.092187500000e+02-2.191868565495e+00-7.988904198498e-09
    -1.500062483624e-11 0.000000000000e+00 1.742000000000e+03 0.000000000000e+00
     2.000000000000e+00 0.000000000000e+00-1.024454832077e-08 7.000000000000e+01
     3.744000000000e+05                                                         
G17 2013 05 30 12 00 00 1.420872285962e-05-4.092726157978e-12 0.000000000000e+00
     7.100000000000e+01-8.121875000000e+01 4.149101398156e-09 2.900485365246e+00
    -4.176050424576e-06 8.344487170689e-03 8.413568139076e-06 5.153639015198e+03
     3.888000000000e+05-1.862645149231e-09-2.474460502069e+00-9.126961231232e-08
     9.655853414195e-01 2.181875000000e+02-2.191757181838e+00-7.808539542729e-09
    -2.214377952016e-11 0.000000000000e+00 1.742000000000e+03 0.000000000000e+00
     2.000000000000e+00 0.000000000000e+00-1.024454832077e-08 7.100000000000e+01
     3.816000000000e+05                                                         
G17 2013 05 30 14 00 00 1.417938619852e-05-4.092726157978e-12 0.000000000000e+00
     7.200000000000e+01-8.762500000000e+01 4.226961784211e-09-2.332559281417e+00
    -4.453584551811e-06 8.345979498699e-03 8.042901754379e-06 5.153636087418e+03
     3.960000000000e+05 5.587935447693e-09-2.474516629847e+00-1.490116119385e-07
     9.655851600177e-01 2.276562500000e+02-2.191697395302e+00-7.812825435539e-09
    -4.928776731906e-11 0.000000000000e+00 1.742000000000e+03 0.000000000000e+00
     2.000000000000e+00 0.000000000000e+00-1.024454832077e-08 7.200000000000e+01
     3.888000000000e+05                                                         
G17 2013 05 30 16 00 00 1.415004953742e-05-4.092726157978e-12 0.000000000000e+00
     7.300000000000e+01-8.856250000000e+01 4.403397704904e-09-1.282344009152e+00
    -4.615634679794e-06 8.346036192961e-03 8.031725883484e-06 5.153636251450e+03
     4.032000000000e+05 2.942979335785e-07-2.474572181235e+00 1.043081283569e-07
     9.655831689862e-01 2.288437500000e+02-2.191711099919e+00-8.072836266034e-09
    -2.735828243942e-10 0.000000000000e+00 1.742000000000e+03 0.000000000000e+00
     2.000000000000e+00 0.000000000000e+00-1.024454832077e-08 7.300000000000e+01
     3.960000000000e+05                                                         
G17 2013 05 30 18 00 00 1.412071287632e-05-4.092726157978e-12 0.000000000000e+00
     7.400000000000e+01-8.862500000000e+01 4.546975114050e-09-2.321906783023e-01
    -4.580244421959e-06 8.345721056685e-03 8.184462785721e-06 5.153635263443e+03
     4.104000000000e+05 5.029141902924e-08-2.474631281663e+00 1.359730958939e-07
     9.655802753342e-01 2.249062500000e+02-2.191660412733e+00-8.274987543589e-09
    -2.785830326729e-10 0.000000000000e+00 1.742000000000e+03 0.000000000000e+00
     2.000000000000e+00 0.000000000000e+00-1.024454832077e-08 7.400000000000e+01
     4.032000000000e+05                                                         
G17 2013 05 30 20 00 00 1.409184187651e-05-4.092726157978e-12 0.000000000000e+00
     7.500000000000e+01-8.309375000000e+01 4.530903016012e-09 8.180047143683e-01
    -4.226341843605e-06 8.346546324901e-03 8.454546332359e-06 5.153636806488e+03
     4.176000000000e+05-6.332993507385e-08-2.474690227021e+00 1.080334186554e-07
     9.655780429212e-01 2.218437500000e+02-2.191652235021e+00-8.230342826815e-09
    -3.571577341961e-10 0.000000000000e+00 1.742000000000e+03 0.000000000000e+00
     2.800000000000e+00 0.000000000000e+00-1.024454832077e-08 7.500000000000e+01
     4.104000000000e+05                                                         
G17 2013 05 30 22 00 00 1.406250521541e-05-4.092726157978e-12 0.000000000000e+00
     7.600000000000e+01-7.843750000000e+01 4.499115977668e-09 1.868283854710e+00
    -4.218891263008e-06 8.346233284101e-03 8.296221494675e-06 5.153635524750e+03
     4.248000000000e+05-2.104789018631e-07-2.474749922856e+00-1.154839992523e-07
     9.655765887807e-01 2.249062500000e+02-2.191726718032e+00-8.039977754488e-09
    -2.150089559860e-10 0.000000000000e+00 1.742000000000e+03 0.000000000000e+00
     2.800000000000e+00 0.000000000000e+00-1.024454832077e-08 7.600000000000e+01
     4.176000000000e+05                                                         
